0 FENGYUN 1C DEB
1 30567U 99025ALH 13282.78470117  .00000113  00000-0  91694-4 0  6262
2 30567 099.0593 306.7665 0114110 070.8976 347.1955 14.05150978342638
0 FENGYUN 1C DEB
1 30567U 99025ALH 13283.55674656  .00000352  00000-0  20603-3 0  6280
2 30567 099.0602 307.5360 0114073 068.6389 292.7372 14.05149236342746
0 FENGYUN 1C DEB
1 30567U 99025ALH 13283.99606664  .00000165  00000-0  12225-3 0  6274
2 30567 099.0590 307.9767 0114093 067.5483 354.9173 14.05151496342800
0 FENGYUN 1C DEB
1 30567U 99025ALH 13285.06383942  .00000114  00000-0  92289-4 0  6289
2 30567 099.0586 309.0434 0114082 064.6012 356.2699 14.05151913342951
0 FENGYUN 1C DEB
1 30567U 99025ALH 13286.64289006  .00000183  00000-0  13281-3 0  6291
2 30567 099.0581 310.6208 0114023 060.2376 063.9423 14.05152141343179
0 FENGYUN 1C DEB
1 30567U 99025ALH 13288.05323620  .00000319  00000-0  21206-3 0  6308
2 30567 099.0576 312.0297 0113936 056.3343 358.2255 14.05153325343379
0 FENGYUN 1C DEB
1 30567U 99025ALH 13289.26522112  .00000246  00000-0  16952-3 0  6311
2 30567 099.0574 313.2402 0113842 052.9746 009.1030 14.05153934343541
0 FENGYUN 1C DEB
1 30567U 99025ALH 13290.34475059  .00000322  00000-0  21417-3 0  6327
2 30567 099.0573 314.3184 0113744 049.9705 069.9636 14.05154145343698
0 FENGYUN 1C DEB
1 30567U 99025ALH 13291.75641124  .00000418  00000-0  27018-3 0  6331
2 30567 099.0572 315.7282 0113625 046.0510 010.9237 14.05154380343897
0 FENGYUN 1C DEB
1 30567U 99025ALH 13293.32458515  .00000555  00000-0  35070-3 0  6346
2 30567 099.0573 317.2942 0113502 041.6836 023.6305 14.05154985344118
0 FENGYUN 1C DEB
1 30567U 99025ALH 13294.74772921  .00000666  00000-0  41550-3 0  6357
2 30567 099.0574 318.7154 0113421 037.7302 022.6882 14.05156028344315
0 FENGYUN 1C DEB
1 30567U 99025ALH 13295.89889242  .00000714  00000-0  44380-3 0  6368
2 30567 099.0575 319.8650 0113369 034.5402 085.9102 14.05157114344477
